<?xml version="1.0" encoding="UTF-8"?>
<kml xmlns="http://www.opengis.net/kml/2.2"><Document>
<Placemark><name>plot</name><Polygon><outerBoundaryIs><LinearRing><coordinates>
77.00,13.00,0 77.01,13.00,0 77.01,13.01,0 77.00,13.01,0 77.00,13.00,0
</coordinates></LinearRing></outerBoundaryIs></Polygon></Placemark>
<Placemark><name>road</name><LineString><coordinates>77.0,13.0,0 77.05,13.0,0</coordinates></LineString></Placemark>
<Placemark><name>pin</name><Point><coordinates>77.0,13.0,0</coordinates></Point></Placemark>
</Document></kml>